NORAD_CAT_ID,OBJECT_NAME,OBJECT_TYPE,EPOCH,MEAN_MOTION,ECCENTRICITY,INCLINATION,RA_OF_ASC_NODE,ARG_OF_PERICENTER,MEAN_ANOMALY,BSTAR,MEAN_MOTION_DOT,MEAN_MOTION_DDOT,TLE_LINE0,TLE_LINE1,TLE_LINE2,SEMIMAJOR_AXIS,PERIOD,APOGEE,PERIGEE,DECAYED
51742.0,STARLINK-3521,PAYLOAD,2022-04-07 04:00:00,15.71252807,9.97e-05,53.2175,278.9829,83.4215,269.558,-0.0060589,-0.00719321,0.0,0 STARLINK-3521,1 51742U 22016AE  22097.16667824 -.00719321  00000-0 -60589-2 0  9995,2 51742  53.2175 278.9829 0000997  83.4215 269.5580 15.71252807  8301,6733.4519999999975,91.647,355.98900000000015,354.646,0.0
51742.0,STARLINK-3521,PAYLOAD,2022-04-07 14:00:01,15.70613928,0.0001294,53.2178,276.9271,64.5184,126.211,-0.0061986,-0.00716606,0.0,0 STARLINK-3521,1 51742U 22016AE  22097.58334491 -.00716606  00000-0 -61986-2 0  9997,2 51742  53.2178 276.9271 0001294  64.5184 126.2110 15.70613928  3711,6735.278,91.684,358.015,356.272,0.0
51742.0,STARLINK-3521,PAYLOAD,2022-04-07 22:00:00,15.70102826,0.00012,53.2175,275.2861,71.5035,204.7352,-0.0063173,-0.00714928,0.0,0 STARLINK-3521,1 51742U 22016AE  22097.91667824 -.00714928  00000-0 -63173-2 0  9998,2 51742  53.2175 275.2861 0001200  71.5035 204.7352 15.70102826  3681,6736.74,91.714,359.413,357.796,0.0
51742.0,STARLINK-3521,PAYLOAD,2022-04-08 06:00:00,15.69594838,0.0001028,53.2175,273.6426,72.1492,288.9872,-0.006485,-0.0071815,0.0,0 STARLINK-3521,1 51742U 22016AE  22098.25001157 -.00718150  00000-0 -64850-2 0  9991,2 51742  53.2175 273.6426 0001028  72.1492 288.9872 15.69594838  8471,6738.193,91.743,360.751,359.366,0.0
51742.0,STARLINK-3521,PAYLOAD,2022-04-08 14:00:03,15.69085513,0.0001205,53.2175,272.0024,56.5739,28.9774,-0.0066328,-0.00719056,0.0,0 STARLINK-3521,1 51742U 22016AE  22098.58336806 -.00719056  00000-0 -66328-2 0  9997,2 51742  53.2175 272.0024 0001205  56.5739  28.9774 15.69085513  3704,6739.651,91.773,362.329,360.704,0.0
51742.0,STARLINK-3521,PAYLOAD,2022-04-08 22:00:00,15.68569561,0.000129,53.2174,270.3651,60.1795,108.9138,-0.0066728,-0.00708969,0.0,0 STARLINK-3521,1 51742U 22016AE  22098.91667824 -.00708969  00000-0 -66728-2 0  9996,2 51742  53.2174 270.3651 0001290  60.1795 108.9138 15.68569561  3686,6741.129,91.803,363.864,362.125,0.0
51742.0,STARLINK-3521,PAYLOAD,2022-04-09 06:00:00,15.68064398,0.0001178,53.2177,268.7252,75.8858,176.2658,-0.006894,-0.00716654,0.0,0 STARLINK-3521,1 51742U 22016AE  22099.25001157 -.00716654  00000-0 -68940-2 0  9993,2 51742  53.2177 268.7252 0001178  75.8858 176.2658 15.68064398  8638,6742.5769999999975,91.833,365.236,363.648,0.0
51742.0,STARLINK-3521,PAYLOAD,2022-04-09 14:00:01,15.67556354,0.0001165,53.2178,267.0891,61.4097,273.1871,-0.0070743,-0.0071991,0.0,0 STARLINK-3521,1 51742U 22016AE  22099.58334491 -.00719910  00000-0 -70743-2 0  9991,2 51742  53.2178 267.0891 0001165  61.4097 273.1871 15.67556354  3706,6744.034000000002,91.863,366.684,365.11300000000006,0.0
51742.0,STARLINK-3521,PAYLOAD,2022-04-09 22:00:00,15.67042217,0.0001199,53.2174,265.4552,52.8194,3.6112,-0.0071454,-0.00712649,0.0,0 STARLINK-3521,1 51742U 22016AE  22099.91667824 -.00712649  00000-0 -71454-2 0  9999,2 51742  53.2174 265.4552 0001199  52.8194   3.6112 15.67042217  3709,6745.509,91.893,368.1830000000001,366.565,0.0
51742.0,STARLINK-3521,PAYLOAD,2022-04-10 06:00:02,15.66532599,0.0001273,53.2174,263.819,55.1552,82.5623,-0.0072996,-0.0071305,0.0,0 STARLINK-3521,1 51742U 22016AE  22100.25002315 -.00713050  00000-0 -72996-2 0  9996,2 51742  53.2174 263.8190 0001273  55.1552  82.5623 15.66532599  8799,6746.972,91.923,369.696,367.978,0.0
51742.0,STARLINK-3521,PAYLOAD,2022-04-10 14:00:01,15.660241699999998,0.000146,53.2176,262.1868,51.5838,166.6753,-0.0074814999999999,-0.00715709,0.0,0 STARLINK-3521,1 51742U 22016AE  22100.58334491 -.00715709  00000-0 -74815-2 0  9990,2 51742  53.2176 262.1868 0001460  51.5838 166.6753 15.66024170  3705,6748.432,91.953,371.282,369.312,0.0
51742.0,STARLINK-3521,PAYLOAD,2022-04-10 22:00:00,15.65512618,0.0001134,53.2173,260.5565,72.5237,225.7297,-0.0076001,-0.00712409,0.0,0 STARLINK-3521,1 51742U 22016AE  22100.91667824 -.00712409  00000-0 -76001-2 0  9999,2 51742  53.2173 260.5565 0001134  72.5237 225.7297 15.65512618  3700,6749.901999999999,91.983,372.532,371.001,0.0
51742.0,STARLINK-3521,PAYLOAD,2022-04-11 04:00:01,15.65134516,0.0001218,53.2175,259.3319,64.4715,203.4409,-0.0078100999999999,-0.00720352,0.0,0 STARLINK-3521,1 51742U 22016AE  22101.16668981 -.00720352  00000-0 -78101-2 0  9991,2 51742  53.2175 259.3319 0001218  64.4715 203.4409 15.65134516  8934,6750.989000000001,92.005,373.676,372.032,0.0
51742.0,STARLINK-3521,PAYLOAD,2022-04-11 14:00:01,15.6449515,0.0001368,53.2175,257.2958,48.5753,47.8298,-0.007972,-0.0071702,0.0,0 STARLINK-3521,1 51742U 22016AE  22101.58334491 -.00717020  00000-0 -79720-2 0  9999,2 51742  53.2175 257.2958 0001368  48.5753  47.8298 15.64495150  3711,6752.828,92.042,375.617,373.769,0.0
51742.0,STARLINK-3521,PAYLOAD,2022-04-11 22:00:00,15.63981995,0.0001286999999999,53.2173,255.6689,62.1141,112.4479,-0.0080644999999999,-0.00711153,0.0,0 STARLINK-3521,1 51742U 22016AE  22101.91667824 -.00711153  00000-0 -80645-2 0  9994,2 51742  53.2173 255.6689 0001287  62.1141 112.4479 15.63981995  3711,6754.305,92.073,377.039,375.301,0.0
51742.0,STARLINK-3521,PAYLOAD,2022-04-12 12:00:00,15.63091546,0.0001524,53.2177,252.8214,49.7423,170.1195,-0.0083943,-0.00714339,0.0,0 STARLINK-3521,1 51742U 22016AE  22102.50001157 -.00714339  00000-0 -83943-2 0  9994,2 51742  53.2177 252.8214 0001524  49.7423 170.1195 15.63091546  9149,6756.87,92.125,379.765,377.705,0.0
51742.0,STARLINK-3521,PAYLOAD,2022-04-12 14:00:01,15.62965524,0.0001405,53.2177,252.4158,46.2721,282.7641,-0.0084724999999999,-0.00717141,0.0,0 STARLINK-3521,1 51742U 22016AE  22102.58334491 -.00717141  00000-0 -84725-2 0  9995,2 51742  53.2177 252.4158 0001405  46.2721 282.7641 15.62965524  3711,6757.233,92.133,380.048,378.149,0.0
51742.0,STARLINK-3521,PAYLOAD,2022-04-12 22:00:00,15.62454718,0.0001209,53.2171,250.7926,52.2321,353.1217,-0.0086129999999999,-0.00714699,0.0,0 STARLINK-3521,1 51742U 22016AE  22102.91667824 -.00714699  00000-0 -86130-2 0  9998,2 51742  53.2171 250.7926 0001209  52.2321 353.1217 15.62454718  3691,6758.706,92.163,381.388,379.754,0.0
51742.0,STARLINK-3521,PAYLOAD,2022-04-13 14:00:03,15.61323389,0.000145,53.2168,247.5476,48.5531,147.7962,-0.0071766,-0.00579454,0.0,0 STARLINK-3521,1 51742U 22016AE  22103.58336806 -.00579454  00000-0 -71766-2 0  9992,2 51742  53.2168 247.5476 0001450  48.5531 147.7962 15.61323389  9317,6761.97,92.229,384.816,382.855,0.0
51742.0,STARLINK-3521,PAYLOAD,2022-04-13 22:00:00,15.60925108,0.0001323,53.2171,245.9271,55.9293,214.7025,-0.0091467999999999,-0.00715006,0.0,0 STARLINK-3521,1 51742U 22016AE  22103.91667824 -.00715006  00000-0 -91468-2 0  9992,2 51742  53.2171 245.9271 0001323  55.9293 214.7025 15.60925108  9368,6763.121,92.253,385.88,384.091,0.0
51742.0,STARLINK-3521,PAYLOAD,2022-04-14 14:00:01,15.59905713,0.0001505,53.2175,242.6894,39.6718,18.0817,-0.0095377,-0.00716667,0.0,0 STARLINK-3521,1 51742U 22016AE  22104.58334491 -.00716667  00000-0 -95377-2 0  9994,2 51742  53.2175 242.6894 0001505  39.6718  18.0817 15.59905713  3704,6766.066999999999,92.313,388.95,386.913,0.0
51742.0,STARLINK-3521,PAYLOAD,2022-04-14 22:00:00,15.59394993,0.0001415,53.2171,241.0728,48.8186,81.5764,-0.0097013,-0.00714944,0.0,0 STARLINK-3521,1 51742U 22016AE  22104.91667824 -.00714944  00000-0 -97013-2 0  9995,2 51742  53.2171 241.0728 0001415  48.8186  81.5764 15.59394993  9524,6767.544,92.344,390.367,388.451,0.0
51742.0,STARLINK-3521,PAYLOAD,2022-04-15 12:50:21,15.5980134,0.0002058,53.2152,238.0893,7.6065,352.49800000000016,-0.0026691,-0.00212896,0.0,0 STARLINK-3521,1 51742U 22016AE  22105.53497577 -.00212896  00000-0 -26691-2 0  9993,2 51742  53.2152 238.0893 0002058   7.6065 352.4980 15.59801340  8488,6766.369000000002,92.319,389.626,386.841,0.0
51742.0,STARLINK-3521,PAYLOAD,2022-04-15 22:00:00,15.57865909,0.0001262,53.2172,236.2298,50.8634,293.7787,-0.010291,-0.00715434,0.0,0 STARLINK-3521,1 51742U 22016AE  22105.91667824 -.00715434  00000-0 -10291-1 0  9993,2 51742  53.2172 236.2298 0001262  50.8634 293.7787 15.57865909  9670,6771.972,92.434,394.691,392.982,0.0
51742.0,STARLINK-3521,PAYLOAD,2022-04-16 14:00:01,15.56844112,0.0001769,53.2172,233.0071,35.6884,88.7227,-0.010659,-0.00713317,0.0,0 STARLINK-3521,1 51742U 22016AE  22106.58334491 -.00713317  00000-0 -10659-1 0  9994,2 51742  53.2172 233.0071 0001769  35.6884  88.7227 15.56844112  3749,6774.934,92.495,397.99800000000016,395.601,0.0
51742.0,STARLINK-3521,PAYLOAD,2022-04-16 22:00:01,15.56335772,0.0001539,53.2172,231.3977,47.0548,146.3854,-0.010909,-0.00715985,0.0,0 STARLINK-3521,1 51742U 22016AE  22106.91668981 -.00715985  00000-0 -10909-1 0  9996,2 51742  53.2172 231.3977 0001539  47.0548 146.3854 15.56335772  9834,6776.409000000002,92.525,399.317,397.232,0.0
51742.0,STARLINK-3521,PAYLOAD,2022-04-17 14:00:01,15.55314874,0.0001857,53.2175,228.1826,29.627,299.8397,-0.011296,-0.00713973,0.0,0 STARLINK-3521,1 51742U 22016AE  22107.58334491 -.00713973  00000-0 -11296-1 0  9991,2 51742  53.2175 228.1826 0001857  29.6270 299.8397 15.55314874  3700,6779.374,92.586,402.49800000000016,399.981,0.0
51742.0,STARLINK-3521,PAYLOAD,2022-04-17 22:00:00,15.54805338,0.0001486999999999,53.2172,226.5767,38.6471,357.9457,-0.011512,-0.00713953,0.0,0 STARLINK-3521,1 51742U 22016AE  22107.91667824 -.00713953  00000-0 -11512-1 0  9996,2 51742  53.2172 226.5767 0001487  38.6471 357.9457 15.54805338  3695,6780.856,92.616,403.729,401.712,0.0
51742.0,STARLINK-3521,PAYLOAD,2022-04-18 08:00:01,15.5416726,0.0001855,53.2176,224.5698,36.9541,172.6857,-0.01175,-0.00712024,0.0,0 STARLINK-3521,1 51742U 22016AE  22108.33334491 -.00712024  00000-0 -11750-1 0  9996,2 51742  53.2176 224.5698 0001855  36.9541 172.6857 15.54167260 10057,6782.7109999999975,92.654,405.835,403.318,0.0
